[{"OBJECT_NAME":"STARLINK-30079","OBJECT_ID":"2023-067U","EPOCH":"2026-03-08T23:24:17.225568","MEAN_MOTION":15.02541537,"ECCENTRICITY":0.00013392,"INCLINATION":43.0031,"RA_OF_ASC_NODE":278.2482,"ARG_OF_PERICENTER":262.3232,"MEAN_ANOMALY":97.7458,"EPHEMERIS_TYPE":0,"CLASSIFICATION_TYPE":"U","NORAD_CAT_ID":56706,"ELEMENT_SET_NO":999,"REV_AT_EPOCH":15555,"BSTAR":6.8530294e-5,"MEAN_MOTION_DOT":7.22e-6,"MEAN_MOTION_DDOT":0},{"OBJECT_NAME":"FENGYUN 1C DEB","OBJECT_ID":"1999-025CHJ","EPOCH":"2026-03-08T11:31:09.458976","MEAN_MOTION":14.95691878,"ECCENTRICITY":0.01420749,"INCLINATION":98.9647,"RA_OF_ASC_NODE":255.4325,"ARG_OF_PERICENTER":95.8243,"MEAN_ANOMALY":265.919,"EPHEMERIS_TYPE":0,"CLASSIFICATION_TYPE":"U","NORAD_CAT_ID":31820,"ELEMENT_SET_NO":999,"REV_AT_EPOCH":99536,"BSTAR":0.0019551569,"MEAN_MOTION_DOT":0.00026677,"MEAN_MOTION_DDOT":0}]
